EUTELSAT 21B            
1 38992U 12062B   25268.86573676  .00000133  00000+0  00000+0 0  9998
2 38992   0.0700 353.4188 0002843 192.7776 152.0013  1.00270495 47177
EUTELSAT 70B            
1 39020U 12069A   25268.82405874 -.00000040  00000+0  00000+0 0  9996
2 39020   0.0665   5.5742 0004036 183.1034 183.3692  1.00271621 46854
EUTELSAT 117 WEST A     
1 39122U 13012A   25268.62412984 -.00000010  00000+0  00000+0 0  9993
2 39122   0.0135 134.2030 0002928  55.7219 282.6533  1.00272665 45783
EUTELSAT 7B             
1 39163U 13022A   25268.86279008  .00000051  00000+0  00000+0 0  9997
2 39163   0.0677 357.3817 0000809   7.2845 317.8668  1.00271114 45309
EXPRESS-AT1             
1 39612U 14010A   25268.94770256  .00000081  00000+0  00000+0 0  9997
2 39612   0.0194 205.7140 0000861 263.5289 292.9584  1.00275089 42160
EXPRESS-AT2             
1 39613U 14010B   25268.88913688 -.00000278  00000+0  00000+0 0  9998
2 39613   0.0177 216.8924 0000237 280.2844 327.7245  1.00271678 41851
EUTELSAT 3B             
1 39773U 14030A   25268.86201008  .00000023  00000+0  00000+0 0  9998
2 39773   0.0636   4.8495 0004309 176.0411 137.4536  1.00272307 41413
EUTELSAT 115 WEST B     
1 40425U 15010B   25268.62456317 -.00000022  00000+0  00000+0 0  9992
2 40425   0.0256  31.5674 0000130 238.9059 204.1733  1.00272279 38748
